CCSDS_OMM_VERS = 2.0
CREATION_DATE  = 
ORIGINATOR     = 

OBJECT_NAME    = H-2A R/B
OBJECT_ID      = 2006-002B
CENTER_NAME    = EARTH
REF_FRAME      = TEME
TIME_SYSTEM    = UTC
MEAN_ELEMENT_THEORY = SGP/SGP4

EPOCH          = 2026-03-11T20:27:50.412384
MEAN_MOTION    = 15.16472326
ECCENTRICITY   = .0051895
INCLINATION    = 98.2412
RA_OF_ASC_NODE = 218.0623
ARG_OF_PERICENTER = 233.5326
MEAN_ANOMALY   = 126.1117

EPHEMERIS_TYPE = 0
CLASSIFICATION_TYPE = U
NORAD_CAT_ID   = 28932
ELEMENT_SET_NO = 999
REV_AT_EPOCH   = 9476
BSTAR          = .49819E-3
MEAN_MOTION_DOT = .9961E-4
MEAN_MOTION_DDOT = 0

CCSDS_OMM_VERS = 2.0
CREATION_DATE  = 
ORIGINATOR     = 

OBJECT_NAME    = RESURS-DK 1
OBJECT_ID      = 2006-021A
CENTER_NAME    = EARTH
REF_FRAME      = TEME
TIME_SYSTEM    = UTC
MEAN_ELEMENT_THEORY = SGP/SGP4

EPOCH          = 2026-03-11T20:23:42.234432
MEAN_MOTION    = 15.12761411
ECCENTRICITY   = .0001684
INCLINATION    = 69.9325
RA_OF_ASC_NODE = 231.4346
ARG_OF_PERICENTER = 161.0804
MEAN_ANOMALY   = 199.0425

EPHEMERIS_TYPE = 0
CLASSIFICATION_TYPE = U
NORAD_CAT_ID   = 29228
ELEMENT_SET_NO = 999
REV_AT_EPOCH   = 8785
BSTAR          = .20973E-3
MEAN_MOTION_DOT = .358E-4
MEAN_MOTION_DDOT = 0

CCSDS_OMM_VERS = 2.0
CREATION_DATE  = 
ORIGINATOR     = 

OBJECT_NAME    = CZ-4B R/B
OBJECT_ID      = 2006-046C
CENTER_NAME    = EARTH
REF_FRAME      = TEME
TIME_SYSTEM    = UTC
MEAN_ELEMENT_THEORY = SGP/SGP4

EPOCH          = 2026-03-11T17:16:56.404128
MEAN_MOTION    = 15.16929544
ECCENTRICITY   = .0031677
INCLINATION    = 97.5596
RA_OF_ASC_NODE = 115.6241
ARG_OF_PERICENTER = 259.9282
MEAN_ANOMALY   = 99.8377

EPHEMERIS_TYPE = 0
CLASSIFICATION_TYPE = U
NORAD_CAT_ID   = 29507
ELEMENT_SET_NO = 999
REV_AT_EPOCH   = 6035
BSTAR          = .27759E-3
MEAN_MOTION_DOT = .5474E-4
MEAN_MOTION_DDOT = 0

CCSDS_OMM_VERS = 2.0
CREATION_DATE  = 
ORIGINATOR     = 

OBJECT_NAME    = CZ-2C R/B
OBJECT_ID      = 2007-010B
CENTER_NAME    = EARTH
REF_FRAME      = TEME
TIME_SYSTEM    = UTC
MEAN_ELEMENT_THEORY = SGP/SGP4

EPOCH          = 2026-03-11T20:08:43.942272
MEAN_MOTION    = 14.20247071
ECCENTRICITY   = .005788
INCLINATION    = 98.3979
RA_OF_ASC_NODE = 184.0102
ARG_OF_PERICENTER = 288.2248
MEAN_ANOMALY   = 71.2636

EPHEMERIS_TYPE = 0
CLASSIFICATION_TYPE = U
NORAD_CAT_ID   = 31114
ELEMENT_SET_NO = 999
REV_AT_EPOCH   = 98002
BSTAR          = .9004E-4
MEAN_MOTION_DOT = .154E-5
MEAN_MOTION_DDOT = 0

CCSDS_OMM_VERS = 2.0
CREATION_DATE  = 
ORIGINATOR     = 

OBJECT_NAME    = COSMO-SKYMED 1
OBJECT_ID      = 2007-023A
CENTER_NAME    = EARTH
REF_FRAME      = TEME
TIME_SYSTEM    = UTC
MEAN_ELEMENT_THEORY = SGP/SGP4

EPOCH          = 2026-03-11T19:17:50.516160
MEAN_MOTION    = 14.96554412
ECCENTRICITY   = .0001438
INCLINATION    = 97.8878
RA_OF_ASC_NODE = 261.8526
ARG_OF_PERICENTER = 98.8662
MEAN_ANOMALY   = 261.2722

EPHEMERIS_TYPE = 0
CLASSIFICATION_TYPE = U
NORAD_CAT_ID   = 31598
ELEMENT_SET_NO = 999
REV_AT_EPOCH   = 1522
BSTAR          = .38686E-3
MEAN_MOTION_DOT = .4342E-4
MEAN_MOTION_DDOT = 0

CCSDS_OMM_VERS = 2.0
CREATION_DATE  = 
ORIGINATOR     = 

OBJECT_NAME    = COSMOS 2428
OBJECT_ID      = 2007-029A
CENTER_NAME    = EARTH
REF_FRAME      = TEME
TIME_SYSTEM    = UTC
MEAN_ELEMENT_THEORY = SGP/SGP4

EPOCH          = 2026-03-11T20:54:10.704672
MEAN_MOTION    = 14.12946574
ECCENTRICITY   = .0009196
INCLINATION    = 70.9435
RA_OF_ASC_NODE = 198.7647
ARG_OF_PERICENTER = 274.9020
MEAN_ANOMALY   = 85.1051

EPHEMERIS_TYPE = 0
CLASSIFICATION_TYPE = U
NORAD_CAT_ID   = 31792
ELEMENT_SET_NO = 999
REV_AT_EPOCH   = 96440
BSTAR          = .43336E-4
MEAN_MOTION_DOT = .33E-6
MEAN_MOTION_DDOT = 0

CCSDS_OMM_VERS = 2.0
CREATION_DATE  = 
ORIGINATOR     = 

OBJECT_NAME    = SL-16 R/B
OBJECT_ID      = 2007-029B
CENTER_NAME    = EARTH
REF_FRAME      = TEME
TIME_SYSTEM    = UTC
MEAN_ELEMENT_THEORY = SGP/SGP4

EPOCH          = 2026-03-11T14:55:00.565248
MEAN_MOTION    = 14.14833845
ECCENTRICITY   = .0002275
INCLINATION    = 70.9759
RA_OF_ASC_NODE = 168.3243
ARG_OF_PERICENTER = 275.9544
MEAN_ANOMALY   = 183.5142

EPHEMERIS_TYPE = 0
CLASSIFICATION_TYPE = U
NORAD_CAT_ID   = 31793
ELEMENT_SET_NO = 999
REV_AT_EPOCH   = 96564
BSTAR          = .87644E-4
MEAN_MOTION_DOT = .121E-5
MEAN_MOTION_DDOT = 0

CCSDS_OMM_VERS = 2.0
CREATION_DATE  = 
ORIGINATOR     = 

OBJECT_NAME    = KORONAS-FOTON
OBJECT_ID      = 2009-003A
CENTER_NAME    = EARTH
REF_FRAME      = TEME
TIME_SYSTEM    = UTC
MEAN_ELEMENT_THEORY = SGP/SGP4

EPOCH          = 2026-03-11T13:54:48.122496
MEAN_MOTION    = 15.43362508
ECCENTRICITY   = .0011353
INCLINATION    = 82.4278
RA_OF_ASC_NODE = 273.9128
ARG_OF_PERICENTER = 143.3930
MEAN_ANOMALY   = 216.8095

EPHEMERIS_TYPE = 0
CLASSIFICATION_TYPE = U
NORAD_CAT_ID   = 33504
ELEMENT_SET_NO = 999
REV_AT_EPOCH   = 94603
BSTAR          = .23981E-3
MEAN_MOTION_DOT = .10758E-3
MEAN_MOTION_DDOT = 0

CCSDS_OMM_VERS = 2.0
CREATION_DATE  = 
ORIGINATOR     = 

OBJECT_NAME    = CZ-2C R/B
OBJECT_ID      = 2011-030B
CENTER_NAME    = EARTH
REF_FRAME      = TEME
TIME_SYSTEM    = UTC
MEAN_ELEMENT_THEORY = SGP/SGP4

EPOCH          = 2026-03-11T20:10:59.680128
MEAN_MOTION    = 14.81232238
ECCENTRICITY   = .0052201
INCLINATION    = 97.8542
RA_OF_ASC_NODE = 28.0609
ARG_OF_PERICENTER = 345.0697
MEAN_ANOMALY   = 75.0266

EPHEMERIS_TYPE = 0
CLASSIFICATION_TYPE = U
NORAD_CAT_ID   = 37731
ELEMENT_SET_NO = 999
REV_AT_EPOCH   = 79041
BSTAR          = .25311E-3
MEAN_MOTION_DOT = .1963E-4
MEAN_MOTION_DDOT = 0

CCSDS_OMM_VERS = 2.0
CREATION_DATE  = 
ORIGINATOR     = 

OBJECT_NAME    = H-2A R/B
OBJECT_ID      = 2012-025E
CENTER_NAME    = EARTH
REF_FRAME      = TEME
TIME_SYSTEM    = UTC
MEAN_ELEMENT_THEORY = SGP/SGP4

EPOCH          = 2026-03-11T20:52:56.099136
MEAN_MOTION    = 14.95189353
ECCENTRICITY   = .0043204
INCLINATION    = 98.4739
RA_OF_ASC_NODE = 38.0911
ARG_OF_PERICENTER = 307.1184
MEAN_ANOMALY   = 52.6090

EPHEMERIS_TYPE = 0
CLASSIFICATION_TYPE = U
NORAD_CAT_ID   = 38341
ELEMENT_SET_NO = 999
REV_AT_EPOCH   = 74854
BSTAR          = .32069E-3
MEAN_MOTION_DOT = .3519E-4
MEAN_MOTION_DDOT = 0

CCSDS_OMM_VERS = 2.0
CREATION_DATE  = 
ORIGINATOR     = 

OBJECT_NAME    = SHIJIAN-16 (SJ-16)
OBJECT_ID      = 2013-057A
CENTER_NAME    = EARTH
REF_FRAME      = TEME
TIME_SYSTEM    = UTC
MEAN_ELEMENT_THEORY = SGP/SGP4

EPOCH          = 2026-03-11T20:11:29.551200
MEAN_MOTION    = 14.92356479
ECCENTRICITY   = .0015513
INCLINATION    = 74.9727
RA_OF_ASC_NODE = 181.0151
ARG_OF_PERICENTER = 106.9355
MEAN_ANOMALY   = 253.3535

EPHEMERIS_TYPE = 0
CLASSIFICATION_TYPE = U
NORAD_CAT_ID   = 39358
ELEMENT_SET_NO = 999
REV_AT_EPOCH   = 67182
BSTAR          = .16585E-3
MEAN_MOTION_DOT = .1671E-4
MEAN_MOTION_DDOT = 0

CCSDS_OMM_VERS = 2.0
CREATION_DATE  = 
ORIGINATOR     = 

OBJECT_NAME    = SL-4 R/B
OBJECT_ID      = 2014-021B
CENTER_NAME    = EARTH
REF_FRAME      = TEME
TIME_SYSTEM    = UTC
MEAN_ELEMENT_THEORY = SGP/SGP4

EPOCH          = 2026-03-11T02:56:01.041792
MEAN_MOTION    = 15.39237531
ECCENTRICITY   = .00973583
INCLINATION    = 51.6080
RA_OF_ASC_NODE = 330.2898
ARG_OF_PERICENTER = 108.2387
MEAN_ANOMALY   = 252.9222

EPHEMERIS_TYPE = 0
CLASSIFICATION_TYPE = U
NORAD_CAT_ID   = 39679
ELEMENT_SET_NO = 999
REV_AT_EPOCH   = 65649
BSTAR          = .41035423E-3
MEAN_MOTION_DOT = .18747E-3
MEAN_MOTION_DDOT = 0

