H-2A R/B                
1 28932U 06002B   26070.85266681  .00009961  00000+0  49819-3 0  9997
2 28932  98.2412 218.0623 0051895 233.5326 126.1117 15.16472326 94768
RESURS-DK 1             
1 29228U 06021A   26070.84979438  .00003580  00000+0  20973-3 0  9998
2 29228  69.9325 231.4346 0001684 161.0804 199.0425 15.12761411 87858
CZ-4B R/B               
1 29507U 06046C   26070.72009727  .00005474  00000+0  27759-3 0  9990
2 29507  97.5596 115.6241 0031677 259.9282  99.8377 15.16929544 60350
CZ-2C R/B               
1 31114U 07010B   26070.83939748  .00000154  00000+0  90040-4 0  9990
2 31114  98.3979 184.0102 0057880 288.2248  71.2636 14.20247071980027
COSMO-SKYMED 1          
1 31598U 07023A   26070.80405690  .00004342  00000+0  38686-3 0  9991
2 31598  97.8878 261.8526 0001438  98.8662 261.2722 14.96554412 15223
COSMOS 2428             
1 31792U 07029A   26070.87095723  .00000033  00000+0  43336-4 0  9994
2 31792  70.9435 198.7647 0009196 274.9020  85.1051 14.12946574964409
SL-16 R/B               
1 31793U 07029B   26070.62153432  .00000121  00000+0  87644-4 0  9998
2 31793  70.9759 168.3243 0002275 275.9544 183.5142 14.14833845965646
KORONAS-FOTON           
1 33504U 09003A   26070.57972364  .00010758  00000+0  23981-3 0  9991
2 33504  82.4278 273.9128 0011353 143.3930 216.8095 15.43362508946036
CZ-2C R/B               
1 37731U 11030B   26070.84096852  .00001963  00000+0  25311-3 0  9996
2 37731  97.8542  28.0609 0052201 345.0697  75.0266 14.81232238790418
H-2A R/B                
1 38341U 12025E   26070.87009374  .00003519  00000+0  32069-3 0  9992
2 38341  98.4739  38.0911 0043204 307.1184  52.6090 14.95189353748548
SHIJIAN-16 (SJ-16)      
1 39358U 13057A   26070.84131425  .00001671  00000+0  16585-3 0  9999
2 39358  74.9727 181.0151 0015513 106.9355 253.3535 14.92356479671827
SL-4 R/B                
1 39679U 14021B   26070.12223428  .00018747  00000+0  41035-3 0  9993
2 39679  51.6080 330.2898 0097358 108.2387 252.9222 15.39237531656493
